{
    "CCSDS_OMM_VERS": "3.0",
    "COMMENT": "GENERATED VIA SPACE-TRACK.ORG API",
    "CREATION_DATE": "2025-11-23T21:08:43",
    "ORIGINATOR": "18 SPCS",
    "OBJECT_NAME": "COSMOS 2547 (GLONASS)",
    "OBJECT_ID": "2020-075A",
    "CENTER_NAME": "EARTH",
    "REF_FRAME": "TEME",
    "TIME_SYSTEM": "UTC",
    "MEAN_ELEMENT_THEORY": "SGP4",
    "EPOCH": "2025-11-22T22:30:48.375360",
    "MEAN_MOTION": "2.13099964",
    "ECCENTRICITY": "0.00064531",
    "INCLINATION": "64.5955",
    "RA_OF_ASC_NODE": "199.3578",
    "ARG_OF_PERICENTER": "230.6442",
    "MEAN_ANOMALY": "129.3965",
    "EPHEMERIS_TYPE": "0",
    "CLASSIFICATION_TYPE": "U",
    "NORAD_CAT_ID": "46805",
    "ELEMENT_SET_NO": "999",
    "REV_AT_EPOCH": "3951",
    "BSTAR": "0.00000000000000",
    "MEAN_MOTION_DOT": "0.00000063",
    "MEAN_MOTION_DDOT": "0.0000000000000",
    "SEMIMAJOR_AXIS": "25508.187",
    "PERIOD": "675.739",
    "APOAPSIS": "19146.513",
    "PERIAPSIS": "19113.591",
    "OBJECT_TYPE": "PAYLOAD",
    "RCS_SIZE": "LARGE",
    "COUNTRY_CODE": "CIS",
    "LAUNCH_DATE": "2020-10-25",
    "SITE": "PKMTR",
    "DECAY_DATE": null,
    "FILE": "4896238",
    "GP_ID": "303335947",
    "TLE_LINE0": "0 COSMOS 2547 (GLONASS)",
    "TLE_LINE1": "1 46805U 20075A   25326.93805990  .00000063  00000-0  00000-0 0  9997",
    "TLE_LINE2": "2 46805  64.5955 199.3578 0006453 230.6442 129.3965  2.13099964 39516"
}